#aV2013  2  3  0  0  0.00000000     288 DD+AD WGS84 FIT  NGA
## 1726      0.00000000   300.00000000 56326 0.0000000000000
+   31     1  2  3  4  5  6  7  8  9 10 11 12 13 14 15 16 17
+         18 19 20 21 22 23 24 25 26 28 29 30 31 32  0  0  0
+          0  0  0  0  0  0  0  0  0  0  0  0  0  0  0  0  0
+          0  0  0  0  0  0  0  0  0  0  0  0  0  0  0  0  0
+          0  0  0  0  0  0  0  0  0  0  0  0  0  0  0  0  0
++         2  2  2  2  2  2  2  2  2  2  2  2  2  2  2  2  2
++         2  2  2  2  2  2  2  2  2  2  2  2  2  2  2  0  0
++         0  0  0  0  0  0  0  0  0  0  0  0  0  0  0  0  0
++         0  0  0  0  0  0  0  0  0  0  0  0  0  0  0  0  0
++         0  0  0  0  0  0  0  0  0  0  0  0  0  0  0  0  0
%c cc cc ccc ccc cccc cccc cccc cccc ccccc ccccc ccccc ccccc
%c cc cc ccc ccc cccc cccc cccc cccc ccccc ccccc ccccc ccccc
%f  0.0000000  0.000000000  0.00000000000  0.000000000000000
%f  0.0000000  0.000000000  0.00000000000  0.000000000000000
%i    0    0    0    0      0      0      0      0         0
%i    0    0    0    0      0      0      0      0         0
/*      NGA, ST. LOUIS,MO.                                  
/*   EPHEMERIS COMPUTED FROM  1 DAYS OF DATA
/*   EPOCHA SMOOTHER  
/* CCCCCCCCCCCCCCCCCCCCCCCCCCCCCCCCCCCCCCCCCCCCCCCCCCCCCCCCC
*  2013  2  3  6 15  0.00000000                                                 
P  1  14142.820066 -22138.668372   3632.263445    297.532381                    
V  1    433.976113   5439.948068  31343.048477      0.024786                    
P  2 -17475.502186   3559.030637 -19344.753645    417.023430                    
V  2   9418.403996 -23421.436756 -13214.012718      0.013347                    
P  3  19043.142899   1562.887406  18038.333505    163.390598                    
V  3  14257.004551  19332.046803 -16048.727678      0.050296                    
P  4 -12125.287954 -10683.005654 -21327.275742    123.537867                    
V  4  12584.338076 -23395.159738   4913.524099      0.110520                    
P  5 -26349.394339   3096.045044   2342.774680   -381.891332                    
V  5  -3165.545477  -2894.051093 -31213.550391     -0.019099                    
P  6  20151.599856   8086.594977  15616.916536    365.003528                    
V  6   9917.444574  17018.155308 -21400.737339     -0.141994                    
P  7   4253.286554 -23690.427409  10946.918251    176.303433                    
V  7   8522.440717 -11222.222638 -27978.522147      0.043658                    
P  8  -3643.359326 -17461.047961  19565.359424      4.458711                    
V  8  14426.841298 -20126.354751 -15921.676009      0.002398                    
P  9 -17517.903028  10421.581995  16500.824395    218.106708                    
V  9   8535.845373 -20266.104070  21119.516698      0.025986                    
P 10 -21046.541390  -9350.995574 -13873.909032    -68.542010                    
V 10  16933.200634  -2779.595550 -23909.101756     -0.013083                    
P 11  13127.690457 -19597.982706  11505.146589   -349.807130                    
V 11   1588.646274  16112.128712  25000.077507     -0.036978                    
P 12 -17016.569028  11533.245861 -16722.039068    115.815898                    
V 12 -21256.903930  -1033.471785  21137.413811      0.020462                    
P 13  -1547.144691 -22768.225837 -13629.268679    147.661829                    
V 13   9356.257238  14389.855222 -25467.926096     -0.029112                    
P 14  14664.768735  21970.250662  -3233.973642    220.186666                    
V 14    149.542119   4858.379531  31642.162624      0.002968                    
P 15 -12174.412968   9802.409068  21443.712305   -107.146252                    
V 15 -15712.477704 -22401.677692   1570.135039     -0.012238                    
P 16  26690.455537   -988.172331   1329.580581   -252.192610                    
V 16   1683.274178   1813.493804 -31967.832678     -0.002086                    
P 17 -16137.002140 -20671.709893  -4772.240813     53.454052                    
V 17  -1098.835706  -6643.780342  30918.315017     -0.037658                    
P 18   5548.186813  15624.054761  21181.083954    237.516865                    
V 18 -26043.406166   1743.122455   5286.413435      0.018719                    
P 19  14144.606835  -5604.043065  21706.469241   -345.387382                    
V 19  12920.912556  24536.134241  -1675.463242     -0.032810                    
P 20  15291.453876 -14099.255275 -16654.830213     82.564703                    
V 20  21082.943383    249.183252  19429.327652      0.015502                    
P 21    375.550463  22480.567689  14239.799216   -278.397559                    
V 21 -10660.892539  14184.511756 -23533.058545     -0.022572                    
P 22  17936.204257  11390.674011  16200.784343    157.447136                    
V 22 -20162.086446   3348.463911  20063.438729      0.010578                    
P 23   5770.482736 -16749.144394 -19610.621638    117.609723                    
V 23  14638.918865  20514.145889 -13548.901259     -0.037235                    
P 24 -15673.611632  20214.705585   7095.343745     -0.414331                    
V 24   1592.401020  -9290.126288  30006.334232     -0.006569                    
P 25  -4650.555915  14966.720125 -21465.689365     67.417266                    
V 25 -27139.947858   1054.025826   6708.559629      0.028132                    
P 26 -17043.293021  -4584.322765  19329.763266   -115.207577                    
V 26 -11127.845218 -23261.363750 -14508.924088      0.139160                    
P 28 -14019.661636 -12862.662405  19196.529506    229.246098                    
V 28  23039.538039   -799.117325  16620.902441      0.035077                    
P 29   2349.417728  22693.178824 -13579.198156    404.208119                    
V 29 -10514.207302 -13906.373835 -24918.242662      0.036437                    
P 30  24349.369574   3533.586538 -10323.382823   -235.355877                    
V 30 -12098.246903   4260.098080 -28053.093011      0.095140                    
P 31  13520.044793   5848.084052 -21923.793053    300.685686                    
V 31 -13403.702606  24829.280204  -1362.413434      0.017366                    
P 32  22072.568947  -7757.912593 -11919.676893   -532.078051                    
V 32  15465.949966   3610.826670  26474.707618     -0.034824                    
EOF
